ALOS (DAICHI)           
1 28931U 06002A   25351.73419158  .00001110  00000+0  19545-3 0  9994
2 28931  98.1098 303.1864 0001361 113.5739 246.5610 14.69501788 61443
H-2A R/B                
1 28932U 06002B   25357.88380305  .00009611  00000+0  50269-3 0  9990
2 28932  98.2324 133.5443 0054784 138.7467 221.7923 15.14781981 82956
RESURS-DK 1             
1 29228U 06021A   25358.60472187  .00002909  00000+0  17407-3 0  9991
2 29228  69.9337  71.1740 0006899 248.2576 111.7856 15.12224408 76177
CZ-4B R/B               
1 29507U 06046C   25358.65059950  .00005250  00000+0  27300-3 0  9997
2 29507  97.5715  38.7565 0034312 165.0247 195.2010 15.15986990 48677
CZ-2C R/B               
1 31114U 07010B   25358.83654292  .00000147  00000+0  86161-4 0  9997
2 31114  98.3975 110.8787 0059605 150.9726 209.4788 14.20214468969093
COSMO-SKYMED 1          
1 31598U 07023A   25358.82922767  .00003125  00000+0  28493-3 0  9993
2 31598  97.8840 184.3084 0001284  78.1165 282.0200 14.95853242  3713
COSMOS 2428             
1 31792U 07029A   25358.70318669  .00000204  00000+0  13523-3 0  9995
2 31792  70.9367   0.7609 0004347   6.9198 353.1982 14.12894626953505
SL-16 R/B               
1 31793U 07029B   25358.71330523  .00000289  00000+0  17445-3 0  9990
2 31793  70.9763 329.9875 0001878 264.6920 268.2622 14.14818501954765
KORONAS-FOTON           
1 33504U 09003A   25358.05087019  .00009263  00000+0  22010-3 0  9997
2 33504  82.4310 354.3824 0013342  73.3551 286.9159 15.41409947934089
CZ-2C R/B               
1 37731U 11030B   25358.82257561  .00001312  00000+0  17277-3 0  9998
2 37731  97.8432 312.6630 0051541 233.1888 183.9388 14.80937036779011
H-2A R/B                
1 38341U 12025E   25358.82527852  .00003363  00000+0  31161-3 0  9990
2 38341  98.4613 314.9885 0044573 195.8097 164.1732 14.94517632737038
SHIJIAN-16 (SJ-16)      
1 39358U 13057A   25358.87324715  .00002346  00000+0  23349-3 0  9992
2 39358  74.9736 326.6953 0017944 291.6900  68.2377 14.92018188660346
