CCSDS_OMM_VERS = 2.0
CREATION_DATE  = 
ORIGINATOR     = 

OBJECT_NAME    = ALOS (DAICHI)
OBJECT_ID      = 2006-002A
CENTER_NAME    = EARTH
REF_FRAME      = TEME
TIME_SYSTEM    = UTC
MEAN_ELEMENT_THEORY = SGP/SGP4

EPOCH          = 2025-12-17T17:37:14.152512
MEAN_MOTION    = 14.69501788
ECCENTRICITY   = .00013612
INCLINATION    = 98.1098
RA_OF_ASC_NODE = 303.1864
ARG_OF_PERICENTER = 113.5739
MEAN_ANOMALY   = 246.5610

EPHEMERIS_TYPE = 0
CLASSIFICATION_TYPE = U
NORAD_CAT_ID   = 28931
ELEMENT_SET_NO = 999
REV_AT_EPOCH   = 6144
BSTAR          = .19545051E-3
MEAN_MOTION_DOT = .111E-4
MEAN_MOTION_DDOT = 0

CCSDS_OMM_VERS = 2.0
CREATION_DATE  = 
ORIGINATOR     = 

OBJECT_NAME    = H-2A R/B
OBJECT_ID      = 2006-002B
CENTER_NAME    = EARTH
REF_FRAME      = TEME
TIME_SYSTEM    = UTC
MEAN_ELEMENT_THEORY = SGP/SGP4

EPOCH          = 2025-12-23T21:12:40.583520
MEAN_MOTION    = 15.14781981
ECCENTRICITY   = .00547841
INCLINATION    = 98.2324
RA_OF_ASC_NODE = 133.5443
ARG_OF_PERICENTER = 138.7467
MEAN_ANOMALY   = 221.7923

EPHEMERIS_TYPE = 0
CLASSIFICATION_TYPE = U
NORAD_CAT_ID   = 28932
ELEMENT_SET_NO = 999
REV_AT_EPOCH   = 8295
BSTAR          = .50269108E-3
MEAN_MOTION_DOT = .9611E-4
MEAN_MOTION_DDOT = 0

CCSDS_OMM_VERS = 2.0
CREATION_DATE  = 
ORIGINATOR     = 

OBJECT_NAME    = RESURS-DK 1
OBJECT_ID      = 2006-021A
CENTER_NAME    = EARTH
REF_FRAME      = TEME
TIME_SYSTEM    = UTC
MEAN_ELEMENT_THEORY = SGP/SGP4

EPOCH          = 2025-12-24T14:30:47.969568
MEAN_MOTION    = 15.12224408
ECCENTRICITY   = .0006899
INCLINATION    = 69.9337
RA_OF_ASC_NODE = 71.1740
ARG_OF_PERICENTER = 248.2576
MEAN_ANOMALY   = 111.7856

EPHEMERIS_TYPE = 0
CLASSIFICATION_TYPE = U
NORAD_CAT_ID   = 29228
ELEMENT_SET_NO = 999
REV_AT_EPOCH   = 7617
BSTAR          = .17407E-3
MEAN_MOTION_DOT = .2909E-4
MEAN_MOTION_DDOT = 0

CCSDS_OMM_VERS = 2.0
CREATION_DATE  = 
ORIGINATOR     = 

OBJECT_NAME    = CZ-4B R/B
OBJECT_ID      = 2006-046C
CENTER_NAME    = EARTH
REF_FRAME      = TEME
TIME_SYSTEM    = UTC
MEAN_ELEMENT_THEORY = SGP/SGP4

EPOCH          = 2025-12-24T15:36:51.796800
MEAN_MOTION    = 15.15986990
ECCENTRICITY   = .0034312
INCLINATION    = 97.5715
RA_OF_ASC_NODE = 38.7565
ARG_OF_PERICENTER = 165.0247
MEAN_ANOMALY   = 195.2010

EPHEMERIS_TYPE = 0
CLASSIFICATION_TYPE = U
NORAD_CAT_ID   = 29507
ELEMENT_SET_NO = 999
REV_AT_EPOCH   = 4867
BSTAR          = .273E-3
MEAN_MOTION_DOT = .525E-4
MEAN_MOTION_DDOT = 0

CCSDS_OMM_VERS = 2.0
CREATION_DATE  = 
ORIGINATOR     = 

OBJECT_NAME    = CZ-2C R/B
OBJECT_ID      = 2007-010B
CENTER_NAME    = EARTH
REF_FRAME      = TEME
TIME_SYSTEM    = UTC
MEAN_ELEMENT_THEORY = SGP/SGP4

EPOCH          = 2025-12-24T20:04:37.308288
MEAN_MOTION    = 14.20214468
ECCENTRICITY   = .0059605
INCLINATION    = 98.3975
RA_OF_ASC_NODE = 110.8787
ARG_OF_PERICENTER = 150.9726
MEAN_ANOMALY   = 209.4788

EPHEMERIS_TYPE = 0
CLASSIFICATION_TYPE = U
NORAD_CAT_ID   = 31114
ELEMENT_SET_NO = 999
REV_AT_EPOCH   = 96909
BSTAR          = .86161E-4
MEAN_MOTION_DOT = .147E-5
MEAN_MOTION_DDOT = 0

CCSDS_OMM_VERS = 2.0
CREATION_DATE  = 
ORIGINATOR     = 

OBJECT_NAME    = COSMO-SKYMED 1
OBJECT_ID      = 2007-023A
CENTER_NAME    = EARTH
REF_FRAME      = TEME
TIME_SYSTEM    = UTC
MEAN_ELEMENT_THEORY = SGP/SGP4

EPOCH          = 2025-12-24T19:54:05.270688
MEAN_MOTION    = 14.95853242
ECCENTRICITY   = .0001284
INCLINATION    = 97.8840
RA_OF_ASC_NODE = 184.3084
ARG_OF_PERICENTER = 78.1165
MEAN_ANOMALY   = 282.0200

EPHEMERIS_TYPE = 0
CLASSIFICATION_TYPE = U
NORAD_CAT_ID   = 31598
ELEMENT_SET_NO = 999
REV_AT_EPOCH   = 371
BSTAR          = .28493E-3
MEAN_MOTION_DOT = .3125E-4
MEAN_MOTION_DDOT = 0

CCSDS_OMM_VERS = 2.0
CREATION_DATE  = 
ORIGINATOR     = 

OBJECT_NAME    = COSMOS 2428
OBJECT_ID      = 2007-029A
CENTER_NAME    = EARTH
REF_FRAME      = TEME
TIME_SYSTEM    = UTC
MEAN_ELEMENT_THEORY = SGP/SGP4

EPOCH          = 2025-12-24T16:52:35.330016
MEAN_MOTION    = 14.12894626
ECCENTRICITY   = .0004347
INCLINATION    = 70.9367
RA_OF_ASC_NODE = 0.7609
ARG_OF_PERICENTER = 6.9198
MEAN_ANOMALY   = 353.1982

EPHEMERIS_TYPE = 0
CLASSIFICATION_TYPE = U
NORAD_CAT_ID   = 31792
ELEMENT_SET_NO = 999
REV_AT_EPOCH   = 95350
BSTAR          = .13523E-3
MEAN_MOTION_DOT = .204E-5
MEAN_MOTION_DDOT = 0

CCSDS_OMM_VERS = 2.0
CREATION_DATE  = 
ORIGINATOR     = 

OBJECT_NAME    = SL-16 R/B
OBJECT_ID      = 2007-029B
CENTER_NAME    = EARTH
REF_FRAME      = TEME
TIME_SYSTEM    = UTC
MEAN_ELEMENT_THEORY = SGP/SGP4

EPOCH          = 2025-12-24T17:07:09.571872
MEAN_MOTION    = 14.14818501
ECCENTRICITY   = .0001878
INCLINATION    = 70.9763
RA_OF_ASC_NODE = 329.9875
ARG_OF_PERICENTER = 264.6920
MEAN_ANOMALY   = 268.2622

EPHEMERIS_TYPE = 0
CLASSIFICATION_TYPE = U
NORAD_CAT_ID   = 31793
ELEMENT_SET_NO = 999
REV_AT_EPOCH   = 95476
BSTAR          = .17445E-3
MEAN_MOTION_DOT = .289E-5
MEAN_MOTION_DDOT = 0

CCSDS_OMM_VERS = 2.0
CREATION_DATE  = 
ORIGINATOR     = 

OBJECT_NAME    = KORONAS-FOTON
OBJECT_ID      = 2009-003A
CENTER_NAME    = EARTH
REF_FRAME      = TEME
TIME_SYSTEM    = UTC
MEAN_ELEMENT_THEORY = SGP/SGP4

EPOCH          = 2025-12-24T01:13:15.184416
MEAN_MOTION    = 15.41409947
ECCENTRICITY   = .00133424
INCLINATION    = 82.4310
RA_OF_ASC_NODE = 354.3824
ARG_OF_PERICENTER = 73.3551
MEAN_ANOMALY   = 286.9159

EPHEMERIS_TYPE = 0
CLASSIFICATION_TYPE = U
NORAD_CAT_ID   = 33504
ELEMENT_SET_NO = 999
REV_AT_EPOCH   = 93408
BSTAR          = .22009636E-3
MEAN_MOTION_DOT = .9263E-4
MEAN_MOTION_DDOT = 0

CCSDS_OMM_VERS = 2.0
CREATION_DATE  = 
ORIGINATOR     = 

OBJECT_NAME    = CZ-2C R/B
OBJECT_ID      = 2011-030B
CENTER_NAME    = EARTH
REF_FRAME      = TEME
TIME_SYSTEM    = UTC
MEAN_ELEMENT_THEORY = SGP/SGP4

EPOCH          = 2025-12-24T19:44:30.532704
MEAN_MOTION    = 14.80937036
ECCENTRICITY   = .0051541
INCLINATION    = 97.8432
RA_OF_ASC_NODE = 312.6630
ARG_OF_PERICENTER = 233.1888
MEAN_ANOMALY   = 183.9388

EPHEMERIS_TYPE = 0
CLASSIFICATION_TYPE = U
NORAD_CAT_ID   = 37731
ELEMENT_SET_NO = 999
REV_AT_EPOCH   = 77901
BSTAR          = .17277E-3
MEAN_MOTION_DOT = .1312E-4
MEAN_MOTION_DDOT = 0

CCSDS_OMM_VERS = 2.0
CREATION_DATE  = 
ORIGINATOR     = 

OBJECT_NAME    = H-2A R/B
OBJECT_ID      = 2012-025E
CENTER_NAME    = EARTH
REF_FRAME      = TEME
TIME_SYSTEM    = UTC
MEAN_ELEMENT_THEORY = SGP/SGP4

EPOCH          = 2025-12-24T19:48:24.064128
MEAN_MOTION    = 14.94517632
ECCENTRICITY   = .0044573
INCLINATION    = 98.4613
RA_OF_ASC_NODE = 314.9885
ARG_OF_PERICENTER = 195.8097
MEAN_ANOMALY   = 164.1732

EPHEMERIS_TYPE = 0
CLASSIFICATION_TYPE = U
NORAD_CAT_ID   = 38341
ELEMENT_SET_NO = 999
REV_AT_EPOCH   = 73703
BSTAR          = .31161E-3
MEAN_MOTION_DOT = .3363E-4
MEAN_MOTION_DDOT = 0

CCSDS_OMM_VERS = 2.0
CREATION_DATE  = 
ORIGINATOR     = 

OBJECT_NAME    = SHIJIAN-16 (SJ-16)
OBJECT_ID      = 2013-057A
CENTER_NAME    = EARTH
REF_FRAME      = TEME
TIME_SYSTEM    = UTC
MEAN_ELEMENT_THEORY = SGP/SGP4

EPOCH          = 2025-12-24T20:57:28.553760
MEAN_MOTION    = 14.92018188
ECCENTRICITY   = .0017944
INCLINATION    = 74.9736
RA_OF_ASC_NODE = 326.6953
ARG_OF_PERICENTER = 291.6900
MEAN_ANOMALY   = 68.2377

EPHEMERIS_TYPE = 0
CLASSIFICATION_TYPE = U
NORAD_CAT_ID   = 39358
ELEMENT_SET_NO = 999
REV_AT_EPOCH   = 66034
BSTAR          = .23349E-3
MEAN_MOTION_DOT = .2346E-4
MEAN_MOTION_DDOT = 0

